{"type": "FeatureCollection", "features": [ {"type": "Feature", "properties": {"norad_id": 42969, "name": "SENTINEL-5P", "group": "resource", "lat": -76.62941741706888, "lon": -40.340205690351766, "alt_km": 834.9388159034397, "timestamp": "2025-12-06T11:28:10.686757+00:00", "meta": {"OBJECT_NAME": "SENTINEL-5P", "OBJECT_ID": "2017-064A", "EPOCH": "2025-12-05T18:55:43.611744", "MEAN_MOTION": 14.19514745, "ECCENTRICITY": 9.236e-05, "INCLINATION": 98.7773, "RA_OF_ASC_NODE": 278.4348, "ARG_OF_PERICENTER": 86.4083, "MEAN_ANOMALY": 273.7199, "EPHEMERIS_TYPE": 0, "CLASSIFICATION_TYPE": "U", "NORAD_CAT_ID": 42969, "ELEMENT_SET_NO": 999, "REV_AT_EPOCH": 42212, "BSTAR": 0.00010700999, "MEAN_MOTION_DOT": 1.81e-06, "MEAN_MOTION_DDOT": 0}, "tle": {"line1": "1 42969U 17064A   25339.78869921  .00000181  00000+0  10701-3 0  9991", "line2": "2 42969  98.7773 278.4348 0000923  86.4083 273.7199 14.19514745422122"}}, "geometry": {"type": "Point", "coordinates": [-40.340205690351766, -76.62941741706888]}}, {"type": "Feature", "properties": {"norad_id": 42987, "name": "SKYSAT-C11", "group": "resource", "lat": 38.666337044605044, "lon": 111.83563829862392, "alt_km": 422.3129223261103, "timestamp": "2025-12-06T11:28:10.686769+00:00", "meta": {"OBJECT_NAME": "SKYSAT-C11", "OBJECT_ID": "2017-068A", "EPOCH": "2025-12-05T22:52:56.877312", "MEAN_MOTION": 15.47026067, "ECCENTRICITY": 9.558e-05, "INCLINATION": 97.4143, "RA_OF_ASC_NODE": 117.2799, "ARG_OF_PERICENTER": 111.2828, "MEAN_ANOMALY": 248.8524, "EPHEMERIS_TYPE": 0, "CLASSIFICATION_TYPE": "U", "NORAD_CAT_ID": 42987, "ELEMENT_SET_NO": 999, "REV_AT_EPOCH": 45326, "BSTAR": 0.00056879594, "MEAN_MOTION_DOT": 0.00028714, "MEAN_MOTION_DDOT": 0}, "tle": {"line1": "1 42987U 17068A   25339.95343608  .00028714  00000+0  56880-3 0  9993", "line2": "2 42987  97.4143 117.2799 0000955 111.2828 248.8524 15.47026067453269"}}, "geometry": {"type": "Point", "coordinates": [111.83563829862392, 38.666337044605044]}}, {"type": "Feature", "properties": {"norad_id": 42988, "name": "SKYSAT-C10", "group": "resource", "lat": 74.34805454487626, "lon": -40.94456206668353, "alt_km": 459.7878511438412, "timestamp": "2025-12-06T11:28:10.686780+00:00", "meta": {"OBJECT_NAME": "SKYSAT-C10", "OBJECT_ID": "2017-068B", "EPOCH": "2025-12-05T22:28:34.957344", "MEAN_MOTION": 15.31841022, "ECCENTRICITY": 0.000521, "INCLINATION": 97.4257, "RA_OF_ASC_NODE": 110.7702, "ARG_OF_PERICENTER": 123.2309, "MEAN_ANOMALY": 236.9433, "EPHEMERIS_TYPE": 0, "CLASSIFICATION_TYPE": "U", "NORAD_CAT_ID": 42988, "ELEMENT_SET_NO": 999, "REV_AT_EPOCH": 45275, "BSTAR": 0.00053284059, "MEAN_MOTION_DOT": 0.00016326, "MEAN_MOTION_DDOT": 0}, "tle": {"line1": "1 42988U 17068B   25339.93651571  .00016326  00000+0  53284-3 0  9994", "line2": "2 42988  97.4257 110.7702 0005210 123.2309 236.9433 15.31841022452753"}}, "geometry": {"type": "Point", "coordinates": [-40.94456206668353, 74.34805454487626]}}, {"type": "Feature", "properties": {"norad_id": 42989, "name": "SKYSAT-C9", "group": "resource", "lat": -41.8122228193358, "lon": -76.00967149817093, "alt_km": 468.1846341665596, "timestamp": "2025-12-06T11:28:10.686791+00:00", "meta": {"OBJECT_NAME": "SKYSAT-C9", "OBJECT_ID": "2017-068C", "EPOCH": "2025-12-05T21:59:47.184576", "MEAN_MOTION": 15.3578286, "ECCENTRICITY": 0.0010678, "INCLINATION": 97.4191, "RA_OF_ASC_NODE": 110.1184, "ARG_OF_PERICENTER": 109.997, "MEAN_ANOMALY": 250.2424, "EPHEMERIS_TYPE": 0, "CLASSIFICATION_TYPE": "U", "NORAD_CAT_ID": 42989, "ELEMENT_SET_NO": 999, "REV_AT_EPOCH": 45303, "BSTAR": 0.00055177338, "MEAN_MOTION_DOT": 0.00019186, "MEAN_MOTION_DDOT": 0}, "tle": {"line1": "1 42989U 17068C   25339.91651834  .00019186  00000+0  55177-3 0  9995", "line2": "2 42989  97.4191 110.1184 0010678 109.9970 250.2424 15.35782860453037"}}, "geometry": {"type": "Point", "coordinates": [-76.00967149817093, -41.8122228193358]}}, {"type": "Feature", "properties": {"norad_id": 42990, "name": "SKYSAT-C8", "group": "resource", "lat": -79.76100721834774, "lon": -115.79317321555607, "alt_km": 475.5212913892865, "timestamp": "2025-12-06T11:28:10.686802+00:00", "meta": {"OBJECT_NAME": "SKYSAT-C8", "OBJECT_ID": "2017-068D", "EPOCH": "2025-12-05T21:47:26.707200", "MEAN_MOTION": 15.32691073, "ECCENTRICITY": 0.00020047, "INCLINATION": 97.4283, "RA_OF_ASC_NODE": 109.8802, "ARG_OF_PERICENTER": 13.2304, "MEAN_ANOMALY": 346.899, "EPHEMERIS_TYPE": 0, "CLASSIFICATION_TYPE": "U", "NORAD_CAT_ID": 42990, "ELEMENT_SET_NO": 999, "REV_AT_EPOCH": 45266, "BSTAR": 0.00053098083, "MEAN_MOTION_DOT": 0.00016703, "MEAN_MOTION_DDOT": 0}, "tle": {"line1": "1 42990U 17068D   25339.90794800  .00016703  00000+0  53098-3 0  9999", "line2": "2 42990  97.4283 109.8802 0002004  13.2304 346.8990 15.32691073452665"}}, "geometry": {"type": "Point", "coordinates": [-115.79317321555607, -79.76100721834774]}}, {"type": "Feature", "properties": {"norad_id": 42991, "name": "SKYSAT-C7", "group": "resource", "lat": 47.597185864857245, "lon": -60.28705949020629, "alt_km": 462.2655073800661, "timestamp": "2025-12-06T11:28:10.686812+00:00", "meta": {"OBJECT_NAME": "SKYSAT-C7", "OBJECT_ID": "2017-068E", "EPOCH": "2025-12-05T20:47:22.958016", "MEAN_MOTION": 15.32096932, "ECCENTRICITY": 0.00078691, "INCLINATION": 97.4288, "RA_OF_ASC_NODE": 110.8849, "ARG_OF_PERICENTER": 78.5608, "MEAN_ANOMALY": 281.6517, "EPHEMERIS_TYPE": 0, "CLASSIFICATION_TYPE": "U", "NORAD_CAT_ID": 42991, "ELEMENT_SET_NO": 999, "REV_AT_EPOCH": 45272, "BSTAR": 0.00053450721, "MEAN_MOTION_DOT": 0.00016518, "MEAN_MOTION_DDOT": 0}, "tle": {"line1": "1 42991U 17068E   25339.86623794  .00016518  00000+0  53451-3 0  9995", "line2": "2 42991  97.4288 110.8849 0007869  78.5608 281.6517 15.32096932452720"}}, "geometry": {"type": "Point", "coordinates": [-60.28705949020629, 47.597185864857245]}}, {"type": "Feature", "properties": {"norad_id": 42992, "name": "SKYSAT-C6", "group": "resource", "lat": -82.12187179424456, "lon": -138.69308937148273, "alt_km": 482.7985298069825, "timestamp": "2025-12-06T11:28:10.686823+00:00", "meta": {"OBJECT_NAME": "SKYSAT-C6", "OBJECT_ID": "2017-068F", "EPOCH": "2025-12-05T21:45:32.443200", "MEAN_MOTION": 15.31272862, "ECCENTRICITY": 0.00051873, "INCLINATION": 97.4324, "RA_OF_ASC_NODE": 111.3697, "ARG_OF_PERICENTER": 102.0368, "MEAN_ANOMALY": 258.1454, "EPHEMERIS_TYPE": 0, "CLASSIFICATION_TYPE": "U", "NORAD_CAT_ID": 42992, "ELEMENT_SET_NO": 999, "REV_AT_EPOCH": 45271, "BSTAR": 0.00052280879, "MEAN_MOTION_DOT": 0.00015735, "MEAN_MOTION_DDOT": 0}, "tle": {"line1": "1 42992U 17068F   25339.90662550  .00015735  00000+0  52281-3 0  9994", "line2": "2 42992  97.4324 111.3697 0005187 102.0368 258.1454 15.31272862452711"}}, "geometry": {"type": "Point", "coordinates": [-138.69308937148273, -82.12187179424456]}}, {"type": "Feature", "properties": {"norad_id": 43111, "name": "CARTOSAT-2F", "group": "resource", "lat": -71.02338982597918, "lon": 60.52862743517955, "alt_km": 515.9805961400971, "timestamp": "2025-12-06T11:28:10.686833+00:00", "meta": {"OBJECT_NAME": "CARTOSAT-2F", "OBJECT_ID": "2018-004A", "EPOCH": "2025-12-05T23:08:30.666912", "MEAN_MOTION": 15.191713, "ECCENTRICITY": 5.644e-05, "INCLINATION": 97.4327, "RA_OF_ASC_NODE": 37.7116, "ARG_OF_PERICENTER": 134.7286, "MEAN_ANOMALY": 225.3995, "EPHEMERIS_TYPE": 0, "CLASSIFICATION_TYPE": "U", "NORAD_CAT_ID": 43111, "ELEMENT_SET_NO": 999, "REV_AT_EPOCH": 43799, "BSTAR": 0.00040456035, "MEAN_MOTION_DOT": 8.443e-05, "MEAN_MOTION_DDOT": 0}, "tle": {"line1": "1 43111U 18004A   25339.96424383  .00008443  00000+0  40456-3 0  9994", "line2": "2 43111  97.4327  37.7116 0000564 134.7286 225.3995 15.19171300437990"}}, "geometry": {"type": "Point", "coordinates": [60.52862743517955, -71.02338982597918]}}, {"type": "Feature", "properties": {"norad_id": 43259, "name": "GAOFEN-1 02", "group": "resource", "lat": -62.67412322124859, "lon": 54.22592290018134, "alt_km": 647.1833832727189, "timestamp": "2025-12-06T11:28:10.686844+00:00", "meta": {"OBJECT_NAME": "GAOFEN-1 02", "OBJECT_ID": "2018-031A", "EPOCH": "2025-12-05T22:44:46.557312", "MEAN_MOTION": 14.76458354, "ECCENTRICITY": 0.00013548, "INCLINATION": 98.0815, "RA_OF_ASC_NODE": 37.7345, "ARG_OF_PERICENTER": 241.3805, "MEAN_ANOMALY": 118.7268, "EPHEMERIS_TYPE": 0, "CLASSIFICATION_TYPE": "U", "NORAD_CAT_ID": 43259, "ELEMENT_SET_NO": 999, "REV_AT_EPOCH": 41418, "BSTAR": 0.00028345588, "MEAN_MOTION_DOT": 1.921e-05, "MEAN_MOTION_DDOT": 0}, "tle": {"line1": "1 43259U 18031A   25339.94776108  .00001921  00000+0  28346-3 0  9998", "line2": "2 43259  98.0815  37.7345 0001354 241.3805 118.7268 14.76458354414189"}}, "geometry": {"type": "Point", "coordinates": [54.22592290018134, -62.67412322124859]}}, {"type": "Feature", "properties": {"norad_id": 43260, "name": "GAOFEN-1 03", "group": "resource", "lat": 51.44468783381545, "lon": 27.87423675596009, "alt_km": 635.14542848374, "timestamp": "2025-12-06T11:28:10.686854+00:00", "meta": {"OBJECT_NAME": "GAOFEN-1 03", "OBJECT_ID": "2018-031B", "EPOCH": "2025-12-05T22:13:18.888384", "MEAN_MOTION": 14.76414581, "ECCENTRICITY": 0.00024268, "INCLINATION": 98.0807, "RA_OF_ASC_NODE": 37.5903, "ARG_OF_PERICENTER": 350.4117, "MEAN_ANOMALY": 9.7046, "EPHEMERIS_TYPE": 0, "CLASSIFICATION_TYPE": "U", "NORAD_CAT_ID": 43260, "ELEMENT_SET_NO": 999, "REV_AT_EPOCH": 41417, "BSTAR": 0.00028282176, "MEAN_MOTION_DOT": 1.914e-05, "MEAN_MOTION_DDOT": 0}, "tle": {"line1": "1 43260U 18031B   25339.92591306  .00001914  00000+0  28282-3 0  9994", "line2": "2 43260  98.0807  37.5903 0002426 350.4117   9.7046 14.76414581414175"}}, "geometry": {"type": "Point", "coordinates": [27.87423675596009, 51.44468783381545]}}]}